AURA                    
1 28376U 04026A   21322.88646724  .00000168  00000-0  47313-4 0  9990
2 28376  98.2118 264.1798 0001388  84.8283 275.3074 14.57117102922568
